QIANFAN-97              
1 66039U 25233G   26001.61973622  .00000060  00000+0  66991-4 0  9994
2 66039  88.9942  60.0782 0014724 354.3380   5.7607 13.57813175 10695
QIANFAN-98              
1 66040U 25233H   26001.61508291  .00000280  00000+0  24606-3 0  9992
2 66040  88.9934  59.9491 0013874 346.3637  13.7155 13.82582983 10766
QIANFAN-99              
1 66041U 25233J   26001.57136643  .00000182  00000+0  23649-3 0  9993
2 66041  88.9942  60.0894 0014297 347.2963  12.7829 13.57809391 10683
QIANFAN-100             
1 66042U 25233K   26001.42190906  .00000037  00000+0  30623-4 0  9990
2 66042  88.9954  60.0143 0014681 351.1089   8.9807 13.63636962 10710
QIANFAN-101             
1 66043U 25233L   26001.58527449  .00000432  00000+0  17266-3 0  9990
2 66043  88.9941  59.7426 0013614 338.5030  21.5590 14.26688290 10874
QIANFAN-102             
1 66044U 25233M   26001.57914315  .00000220  00000+0  24968-3 0  9994
2 66044  88.9940  60.0543 0014063 348.5184  11.5653 13.66801962 10706
QIANFAN-103             
1 66045U 25233N   26001.64534188  .00000032  00000+0  27055-4 0  9991
2 66045  88.9942  60.0819 0013841 349.8817  10.2057 13.57796011 10695
QIANFAN-104             
1 66046U 25233P   26001.56498371  .00000263  00000+0  27832-3 0  9994
2 66046  88.9944  60.0540 0013510 352.3621   7.7334 13.71547267 10708
